STARLINK-31095          
1 58683U 23211S   26068.44516249 -.00004107  00000+0 -13971-3 0  9993
2 58683  43.0059  86.9674 0002186 291.6017  68.4602 15.27598880123696
FLOCK 4G-30             
1 62679U 25009BY  26068.70871344  .00013147  00000+0  49475-3 0  9999
2 62679  97.3969 150.6012 0003795 342.4152  17.6955 15.27244548121341
